CCSDS_OMM_VERS = 2.0
CREATION_DATE  = 
ORIGINATOR     = 

OBJECT_NAME    = STARLINK-36690
OBJECT_ID      = 2026-036K
CENTER_NAME    = EARTH
REF_FRAME      = TEME
TIME_SYSTEM    = UTC
MEAN_ELEMENT_THEORY = SGP/SGP4

EPOCH          = 2026-02-28T22:00:01.999584
MEAN_MOTION    = 15.92645988
ECCENTRICITY   = .00016493
INCLINATION    = 42.9961
RA_OF_ASC_NODE = 303.6404
ARG_OF_PERICENTER = 271.4247
MEAN_ANOMALY   = 312.1644

EPHEMERIS_TYPE = 0
CLASSIFICATION_TYPE = U
NORAD_CAT_ID   = 67913
ELEMENT_SET_NO = 999
REV_AT_EPOCH   = 223
BSTAR          = -.45007088E-2
MEAN_MOTION_DOT = -.1595007E-1
MEAN_MOTION_DDOT = .7148489E-3

CCSDS_OMM_VERS = 2.0
CREATION_DATE  = 
ORIGINATOR     = 

OBJECT_NAME    = STARLINK-36724
OBJECT_ID      = 2026-036L
CENTER_NAME    = EARTH
REF_FRAME      = TEME
TIME_SYSTEM    = UTC
MEAN_ELEMENT_THEORY = SGP/SGP4

EPOCH          = 2026-02-28T22:00:01.999584
MEAN_MOTION    = 15.92955086
ECCENTRICITY   = .00016198
INCLINATION    = 42.9959
RA_OF_ASC_NODE = 303.6285
ARG_OF_PERICENTER = 271.7886
MEAN_ANOMALY   = 316.4571

EPHEMERIS_TYPE = 0
CLASSIFICATION_TYPE = U
NORAD_CAT_ID   = 67914
ELEMENT_SET_NO = 999
REV_AT_EPOCH   = 223
BSTAR          = -.44047383E-2
MEAN_MOTION_DOT = -.1586644E-1
MEAN_MOTION_DDOT = .71011371E-3

CCSDS_OMM_VERS = 2.0
CREATION_DATE  = 
ORIGINATOR     = 

OBJECT_NAME    = STARLINK-36723
OBJECT_ID      = 2026-036M
CENTER_NAME    = EARTH
REF_FRAME      = TEME
TIME_SYSTEM    = UTC
MEAN_ELEMENT_THEORY = SGP/SGP4

EPOCH          = 2026-02-28T22:00:01.999584
MEAN_MOTION    = 15.92801192
ECCENTRICITY   = .00017188
INCLINATION    = 42.9961
RA_OF_ASC_NODE = 303.6342
ARG_OF_PERICENTER = 271.2954
MEAN_ANOMALY   = 314.7996

EPHEMERIS_TYPE = 0
CLASSIFICATION_TYPE = U
NORAD_CAT_ID   = 67915
ELEMENT_SET_NO = 999
REV_AT_EPOCH   = 223
BSTAR          = -.44589341E-2
MEAN_MOTION_DOT = -.1593167E-1
MEAN_MOTION_DDOT = .71441615E-3

CCSDS_OMM_VERS = 2.0
CREATION_DATE  = 
ORIGINATOR     = 

OBJECT_NAME    = STARLINK-36721
OBJECT_ID      = 2026-036N
CENTER_NAME    = EARTH
REF_FRAME      = TEME
TIME_SYSTEM    = UTC
MEAN_ELEMENT_THEORY = SGP/SGP4

EPOCH          = 2026-02-28T22:00:01.999584
MEAN_MOTION    = 15.93112670
ECCENTRICITY   = .00015648
INCLINATION    = 42.9962
RA_OF_ASC_NODE = 303.6223
ARG_OF_PERICENTER = 275.2400
MEAN_ANOMALY   = 315.6085

EPHEMERIS_TYPE = 0
CLASSIFICATION_TYPE = U
NORAD_CAT_ID   = 67916
ELEMENT_SET_NO = 999
REV_AT_EPOCH   = 223
BSTAR          = -.4406283E-2
MEAN_MOTION_DOT = -.1600241E-1
MEAN_MOTION_DDOT = .72247175E-3

CCSDS_OMM_VERS = 2.0
CREATION_DATE  = 
ORIGINATOR     = 

OBJECT_NAME    = STARLINK-36722
OBJECT_ID      = 2026-036P
CENTER_NAME    = EARTH
REF_FRAME      = TEME
TIME_SYSTEM    = UTC
MEAN_ELEMENT_THEORY = SGP/SGP4

EPOCH          = 2026-02-28T22:00:01.999584
MEAN_MOTION    = 15.93262657
ECCENTRICITY   = .00016699
INCLINATION    = 42.9962
RA_OF_ASC_NODE = 303.6165
ARG_OF_PERICENTER = 271.4669
MEAN_ANOMALY   = 321.6503

EPHEMERIS_TYPE = 0
CLASSIFICATION_TYPE = U
NORAD_CAT_ID   = 67917
ELEMENT_SET_NO = 999
REV_AT_EPOCH   = 223
BSTAR          = -.43515706E-2
MEAN_MOTION_DOT = -.1593045E-1
MEAN_MOTION_DDOT = .71756313E-3

CCSDS_OMM_VERS = 2.0
CREATION_DATE  = 
ORIGINATOR     = 

OBJECT_NAME    = STARLINK-36341
OBJECT_ID      = 2026-036Q
CENTER_NAME    = EARTH
REF_FRAME      = TEME
TIME_SYSTEM    = UTC
MEAN_ELEMENT_THEORY = SGP/SGP4

EPOCH          = 2026-02-28T22:00:01.999584
MEAN_MOTION    = 15.93568819
ECCENTRICITY   = .00016339
INCLINATION    = 42.9961
RA_OF_ASC_NODE = 303.6049
ARG_OF_PERICENTER = 267.9950
MEAN_ANOMALY   = 329.6966

EPHEMERIS_TYPE = 0
CLASSIFICATION_TYPE = U
NORAD_CAT_ID   = 67918
ELEMENT_SET_NO = 999
REV_AT_EPOCH   = 223
BSTAR          = -.42769941E-2
MEAN_MOTION_DOT = -.1591324E-1
MEAN_MOTION_DDOT = .71830693E-3

CCSDS_OMM_VERS = 2.0
CREATION_DATE  = 
ORIGINATOR     = 

OBJECT_NAME    = STARLINK-36663
OBJECT_ID      = 2026-036R
CENTER_NAME    = EARTH
REF_FRAME      = TEME
TIME_SYSTEM    = UTC
MEAN_ELEMENT_THEORY = SGP/SGP4

EPOCH          = 2026-02-28T22:00:01.999584
MEAN_MOTION    = 15.93414641
ECCENTRICITY   = .00016996
INCLINATION    = 42.9963
RA_OF_ASC_NODE = 303.6108
ARG_OF_PERICENTER = 271.7732
MEAN_ANOMALY   = 323.6344

EPHEMERIS_TYPE = 0
CLASSIFICATION_TYPE = U
NORAD_CAT_ID   = 67919
ELEMENT_SET_NO = 999
REV_AT_EPOCH   = 223
BSTAR          = -.43070761E-2
MEAN_MOTION_DOT = -.1589526E-1
MEAN_MOTION_DDOT = .71572127E-3

CCSDS_OMM_VERS = 2.0
CREATION_DATE  = 
ORIGINATOR     = 

OBJECT_NAME    = STARLINK-36375
OBJECT_ID      = 2026-036S
CENTER_NAME    = EARTH
REF_FRAME      = TEME
TIME_SYSTEM    = UTC
MEAN_ELEMENT_THEORY = SGP/SGP4

EPOCH          = 2026-02-28T22:00:01.999584
MEAN_MOTION    = 15.93722603
ECCENTRICITY   = .00015735
INCLINATION    = 42.9963
RA_OF_ASC_NODE = 303.5990
ARG_OF_PERICENTER = 274.0365
MEAN_ANOMALY   = 326.0627

EPHEMERIS_TYPE = 0
CLASSIFICATION_TYPE = U
NORAD_CAT_ID   = 67920
ELEMENT_SET_NO = 999
REV_AT_EPOCH   = 223
BSTAR          = -.42720146E-2
MEAN_MOTION_DOT = -.1602335E-1
MEAN_MOTION_DDOT = .72859243E-3

CCSDS_OMM_VERS = 2.0
CREATION_DATE  = 
ORIGINATOR     = 

OBJECT_NAME    = STARLINK-36405
OBJECT_ID      = 2026-036T
CENTER_NAME    = EARTH
REF_FRAME      = TEME
TIME_SYSTEM    = UTC
MEAN_ELEMENT_THEORY = SGP/SGP4

EPOCH          = 2026-02-28T22:00:01.999584
MEAN_MOTION    = 15.93866380
ECCENTRICITY   = .00017144
INCLINATION    = 42.9963
RA_OF_ASC_NODE = 303.5937
ARG_OF_PERICENTER = 270.6787
MEAN_ANOMALY   = 331.5380

EPHEMERIS_TYPE = 0
CLASSIFICATION_TYPE = U
NORAD_CAT_ID   = 67921
ELEMENT_SET_NO = 999
REV_AT_EPOCH   = 223
BSTAR          = -.42044305E-2
MEAN_MOTION_DOT = -.1589283E-1
MEAN_MOTION_DDOT = .7187299E-3

CCSDS_OMM_VERS = 2.0
CREATION_DATE  = 
ORIGINATOR     = 

OBJECT_NAME    = STARLINK-36383
OBJECT_ID      = 2026-036U
CENTER_NAME    = EARTH
REF_FRAME      = TEME
TIME_SYSTEM    = UTC
MEAN_ELEMENT_THEORY = SGP/SGP4

EPOCH          = 2026-02-28T22:00:01.999584
MEAN_MOTION    = 15.94024368
ECCENTRICITY   = .00016856
INCLINATION    = 42.9965
RA_OF_ASC_NODE = 303.5876
ARG_OF_PERICENTER = 272.4269
MEAN_ANOMALY   = 332.2155

EPHEMERIS_TYPE = 0
CLASSIFICATION_TYPE = U
NORAD_CAT_ID   = 67922
ELEMENT_SET_NO = 999
REV_AT_EPOCH   = 223
BSTAR          = -.42217072E-2
MEAN_MOTION_DOT = -.1609031E-1
MEAN_MOTION_DDOT = .73641768E-3

CCSDS_OMM_VERS = 2.0
CREATION_DATE  = 
ORIGINATOR     = 

OBJECT_NAME    = STARLINK-36406
OBJECT_ID      = 2026-036V
CENTER_NAME    = EARTH
REF_FRAME      = TEME
TIME_SYSTEM    = UTC
MEAN_ELEMENT_THEORY = SGP/SGP4

EPOCH          = 2026-02-28T22:00:01.999584
MEAN_MOTION    = 15.94168799
ECCENTRICITY   = .00016545
INCLINATION    = 42.9965
RA_OF_ASC_NODE = 303.5820
ARG_OF_PERICENTER = 270.9328
MEAN_ANOMALY   = 335.8984

EPHEMERIS_TYPE = 0
CLASSIFICATION_TYPE = U
NORAD_CAT_ID   = 67923
ELEMENT_SET_NO = 999
REV_AT_EPOCH   = 223
BSTAR          = -.41693141E-2
MEAN_MOTION_DOT = -.1601438E-1
MEAN_MOTION_DDOT = .73108331E-3

CCSDS_OMM_VERS = 2.0
CREATION_DATE  = 
ORIGINATOR     = 

OBJECT_NAME    = STARLINK-36714
OBJECT_ID      = 2026-036W
CENTER_NAME    = EARTH
REF_FRAME      = TEME
TIME_SYSTEM    = UTC
MEAN_ELEMENT_THEORY = SGP/SGP4

EPOCH          = 2026-02-28T22:00:01.999584
MEAN_MOTION    = 15.94313875
ECCENTRICITY   = .0001632
INCLINATION    = 42.9965
RA_OF_ASC_NODE = 303.5765
ARG_OF_PERICENTER = 272.1994
MEAN_ANOMALY   = 336.7971

EPHEMERIS_TYPE = 0
CLASSIFICATION_TYPE = U
NORAD_CAT_ID   = 67924
ELEMENT_SET_NO = 999
REV_AT_EPOCH   = 223
BSTAR          = -.4131979E-2
MEAN_MOTION_DOT = -.1599465E-1
MEAN_MOTION_DDOT = .73048406E-3

