STARLINK-36690          
1 67913U 26036K   26059.91668981 -.01595007  71485-3 -45007-2 0  9998
2 67913  42.9961 303.6404 0001649 271.4247 312.1644 15.92645988  2231
STARLINK-36724          
1 67914U 26036L   26059.91668981 -.01586644  71011-3 -44047-2 0  9994
2 67914  42.9959 303.6285 0001619 271.7886 316.4571 15.92955086  2234
STARLINK-36723          
1 67915U 26036M   26059.91668981 -.01593167  71442-3 -44589-2 0  9992
2 67915  42.9961 303.6342 0001718 271.2954 314.7996 15.92801192  2233
STARLINK-36721          
1 67916U 26036N   26059.91668981 -.01600241  72247-3 -44063-2 0  9996
2 67916  42.9962 303.6223 0001564 275.2400 315.6085 15.93112670  2238
STARLINK-36722          
1 67917U 26036P   26059.91668981 -.01593045  71756-3 -43516-2 0  9996
2 67917  42.9962 303.6165 0001669 271.4669 321.6503 15.93262657  2238
STARLINK-36341          
1 67918U 26036Q   26059.91668981 -.01591324  71831-3 -42770-2 0  9990
2 67918  42.9961 303.6049 0001633 267.9950 329.6966 15.93568819  2233
STARLINK-36663          
1 67919U 26036R   26059.91668981 -.01589526  71572-3 -43071-2 0  9999
2 67919  42.9963 303.6108 0001699 271.7732 323.6344 15.93414641  2232
STARLINK-36375          
1 67920U 26036S   26059.91668981 -.01602335  72859-3 -42720-2 0  9994
2 67920  42.9963 303.5990 0001573 274.0365 326.0627 15.93722603  2232
STARLINK-36405          
1 67921U 26036T   26059.91668981 -.01589283  71873-3 -42044-2 0  9995
2 67921  42.9963 303.5937 0001714 270.6787 331.5380 15.93866380  2239
STARLINK-36383          
1 67922U 26036U   26059.91668981 -.01609031  73642-3 -42217-2 0  9998
2 67922  42.9965 303.5876 0001685 272.4269 332.2155 15.94024368  2237
STARLINK-36406          
1 67923U 26036V   26059.91668981 -.01601438  73108-3 -41693-2 0  9996
2 67923  42.9965 303.5820 0001654 270.9328 335.8984 15.94168799  2238
STARLINK-36714          
1 67924U 26036W   26059.91668981 -.01599465  73048-3 -41320-2 0  9993
2 67924  42.9965 303.5765 0001632 272.1994 336.7971 15.94313875  2239
